start=new Date('2022-12-16T00:00:00.000Z').valueOf();
sats=[{"BSTAR":"0.00007673900000","OBJECT_NAME":"STARLINK-3657","EPOCH":"2022-12-15T19:28:38.281152","SEMIMAJOR_AXIS":"6917.871","ELEMENT_SET_NO":"999","FILE":"3702726","MEAN_MOTION_DOT":"0.00000933","APOAPSIS":"541.123","DECAY_DATE":null,"REV_AT_EPOCH":"4321","ARG_OF_PERICENTER":"44.2743","EPHEMERIS_TYPE":"0","OBJECT_TYPE":"PAYLOAD","TLE_LINE2":"2 51990  53.2178 275.7992 0002005  44.2743 315.8409 15.08842929 43212","GP_ID":"220529860","REF_FRAME":"TEME","NORAD_CAT_ID":"51990","COUNTRY_CODE":"US","CENTER_NAME":"EARTH","TIME_SYSTEM":"UTC","MEAN_ANOMALY":"315.8409","CLASSIFICATION_TYPE":"U","TLE_LINE1":"1 51990U 22025AL  22349.81155418  .00000933  00000-0  76739-4 0  9999","ECCENTRICITY":"0.00020050","LAUNCH_DATE":"2022-03-09","OBJECT_ID":"2022-025AL","MEAN_MOTION":"15.08842929","RCS_SIZE":"LARGE","INCLINATION":"53.2178","MEAN_ELEMENT_THEORY":"SGP4","PERIAPSIS":"538.349","SITE":"AFETR","MEAN_MOTION_DDOT":"0.0000000000000","PERIOD":"95.437","RA_OF_ASC_NODE":"275.7992"},{"CLASSIFICATION_TYPE":"U","MEAN_ANOMALY":"329.2116","TIME_SYSTEM":"UTC","MEAN_MOTION":"15.08840997","RCS_SIZE":"LARGE","OBJECT_ID":"2022-025AM","TLE_LINE1":"1 51991U 22025AM  22349.83547449  .00000079  00000-0  23079-4 0  9991","ECCENTRICITY":"0.00025690","LAUNCH_DATE":"2022-03-09","PERIAPSIS":"537.965","MEAN_ELEMENT_THEORY":"SGP4","INCLINATION":"53.2167","RA_OF_ASC_NODE":"295.7063","PERIOD":"95.437","MEAN_MOTION_DDOT":"0.0000000000000","SITE":"AFETR","ELEMENT_SET_NO":"999","SEMIMAJOR_AXIS":"6917.877","EPOCH":"2022-12-15T20:03:04.995936","OBJECT_NAME":"STARLINK-3652","BSTAR":"0.00002307900000","ARG_OF_PERICENTER":"30.9027","EPHEMERIS_TYPE":"0","REV_AT_EPOCH":"4294","DECAY_DATE":null,"APOAPSIS":"541.520","MEAN_MOTION_DOT":"0.00000079","FILE":"3702726","GP_ID":"220530110","TLE_LINE2":"2 51991  53.2167 295.7063 0002569  30.9027 329.2116 15.08840997 42940","OBJECT_TYPE":"PAYLOAD","COUNTRY_CODE":"US","CENTER_NAME":"EARTH","NORAD_CAT_ID":"51991","REF_FRAME":"TEME"},{"MEAN_ANOMALY":"331.9316","CLASSIFICATION_TYPE":"U","TIME_SYSTEM":"UTC","MEAN_MOTION":"15.08842265","RCS_SIZE":"LARGE","TLE_LINE1":"1 51992U 22025AN  22349.80051619  .00000855  00000-0  71839-4 0  9997","ECCENTRICITY":"0.00023580","LAUNCH_DATE":"2022-03-09","OBJECT_ID":"2022-025AN","INCLINATION":"53.2184","PERIAPSIS":"538.107","MEAN_ELEMENT_THEORY":"SGP4","RA_OF_ASC_NODE":"275.8628","PERIOD":"95.437","MEAN_MOTION_DDOT":"0.0000000000000","SITE":"AFETR","ELEMENT_SET_NO":"999","SEMIMAJOR_AXIS":"6917.873","OBJECT_NAME":"STARLINK-3643","BSTAR":"0.00007183900000","EPOCH":"2022-12-15T19:12:44.598816","EPHEMERIS_TYPE":"0","ARG_OF_PERICENTER":"28.1803","REV_AT_EPOCH":"4278","FILE":"3702726","MEAN_MOTION_DOT":"0.00000855","DECAY_DATE":null,"APOAPSIS":"541.370","OBJECT_TYPE":"PAYLOAD","GP_ID":"220528859","TLE_LINE2":"2 51992  53.2184 275.8628 0002358  28.1803 331.9316 15.08842265 42787","COUNTRY_CODE":"US","CENTER_NAME":"EARTH","REF_FRAME":"TEME","NORAD_CAT_ID":"51992"},{"REV_AT_EPOCH":"4286","EPHEMERIS_TYPE":"0","ARG_OF_PERICENTER":"28.3271","APOAPSIS":"541.364","DECAY_DATE":null,"FILE":"3702025","MEAN_MOTION_DOT":"0.00001140","SEMIMAJOR_AXIS":"6917.905","ELEMENT_SET_NO":"999","EPOCH":"2022-12-15T07:04:06.475296","BSTAR":"0.00008974900000","OBJECT_NAME":"STARLINK-3648","CENTER_NAME":"EARTH","COUNTRY_CODE":"US","NORAD_CAT_ID":"51993","REF_FRAME":"TEME","GP_ID":"220489752","TLE_LINE2":"2 51993  53.2178 298.1278 0002304  28.3271 331.7846 15.08832059 42867","OBJECT_TYPE":"PAYLOAD","MEAN_MOTION":"15.08832059","RCS_SIZE":"LARGE","OBJECT_ID":"2022-025AP","ECCENTRICITY":"0.00023040","TLE_LINE1":"1 51993U 22025AP  22349.29451939  .00001140  00000-0  89749-4 0  9997","LAUNCH_DATE":"2022-03-09","CLASSIFICATION_TYPE":"U","MEAN_ANOMALY":"331.7846","TIME_SYSTEM":"UTC","RA_OF_ASC_NODE":"298.1278","PERIOD":"95.438","SITE":"AFETR","MEAN_MOTION_DDOT":"0.0000000000000","PERIAPSIS":"538.176","MEAN_ELEMENT_THEORY":"SGP4","INCLINATION":"53.2178"},{"OBJECT_TYPE":"PAYLOAD","TLE_LINE2":"2 51994  53.2185 275.8805 0002244  37.2892 322.8256 15.08845988 42798","GP_ID":"220529360","REF_FRAME":"TEME","NORAD_CAT_ID":"51994","COUNTRY_CODE":"US","CENTER_NAME":"EARTH","OBJECT_NAME":"STARLINK-3647","BSTAR":"0.00011030000000","EPOCH":"2022-12-15T19:07:26.583744","ELEMENT_SET_NO":"999","SEMIMAJOR_AXIS":"6917.862","FILE":"3702726","MEAN_MOTION_DOT":"0.00001468","APOAPSIS":"541.279","DECAY_DATE":null,"ARG_OF_PERICENTER":"37.2892","EPHEMERIS_TYPE":"0","REV_AT_EPOCH":"4279","INCLINATION":"53.2185","MEAN_ELEMENT_THEORY":"SGP4","PERIAPSIS":"538.175","SITE":"AFETR","MEAN_MOTION_DDOT":"0.0000000000000","RA_OF_ASC_NODE":"275.8805","PERIOD":"95.437","TIME_SYSTEM":"UTC","MEAN_ANOMALY":"322.8256","CLASSIFICATION_TYPE":"U","LAUNCH_DATE":"2022-03-09","TLE_LINE1":"1 51994U 22025AQ  22349.79683546  .00001468  00000-0  11030-3 0  9994","ECCENTRICITY":"0.00022440","OBJECT_ID":"2022-025AQ","MEAN_MOTION":"15.08845988","RCS_SIZE":"LARGE"},{"EPOCH":"2022-12-15T19:23:20.971968","OBJECT_NAME":"STARLINK-3636","BSTAR":"-0.00000585610000","ELEMENT_SET_NO":"999","SEMIMAJOR_AXIS":"6917.882","DECAY_DATE":null,"APOAPSIS":"541.388","FILE":"3702726","MEAN_MOTION_DOT":"-0.00000382","ARG_OF_PERICENTER":"35.7514","EPHEMERIS_TYPE":"0","REV_AT_EPOCH":"4278","GP_ID":"220529610","TLE_LINE2":"2 51995  53.2177 275.8150 0002373  35.7514 324.3637 15.08839525 42789","OBJECT_TYPE":"PAYLOAD","NORAD_CAT_ID":"51995","REF_FRAME":"TEME","CENTER_NAME":"EARTH","COUNTRY_CODE":"US","TIME_SYSTEM":"UTC","CLASSIFICATION_TYPE":"U","MEAN_ANOMALY":"324.3637","OBJECT_ID":"2022-025AR","TLE_LINE1":"1 51995U 22025AR  22349.80788162 -.00000382  00000-0 -58561-5 0  9995","ECCENTRICITY":"0.00023730","LAUNCH_DATE":"2022-03-09","RCS_SIZE":"LARGE","MEAN_MOTION":"15.08839525","MEAN_ELEMENT_THEORY":"SGP4","PERIAPSIS":"538.105","INCLINATION":"53.2177","SITE":"AFETR","MEAN_MOTION_DDOT":"0.0000000000000","RA_OF_ASC_NODE":"275.8150","PERIOD":"95.438"},{"OBJECT_TYPE":"PAYLOAD","GP_ID":"220528360","TLE_LINE2":"2 51996  53.2168 275.8961 0002029  40.6417 319.4726 15.08848407 42799","CENTER_NAME":"EARTH","COUNTRY_CODE":"US","REF_FRAME":"TEME","NORAD_CAT_ID":"51996","SEMIMAJOR_AXIS":"6917.855","ELEMENT_SET_NO":"999","BSTAR":"0.00021857000000","OBJECT_NAME":"STARLINK-3538","EPOCH":"2022-12-15T19:02:08.432160","REV_AT_EPOCH":"4279","ARG_OF_PERICENTER":"40.6417","EPHEMERIS_TYPE":"0","FILE":"3702726","MEAN_MOTION_DOT":"0.00003193","DECAY_DATE":null,"APOAPSIS":"541.123","INCLINATION":"53.2168","PERIAPSIS":"538.316","MEAN_ELEMENT_THEORY":"SGP4","PERIOD":"95.437","RA_OF_ASC_NODE":"275.8961","MEAN_MOTION_DDOT":"0.0000000000000","SITE":"AFETR","MEAN_ANOMALY":"319.4726","CLASSIFICATION_TYPE":"U","TIME_SYSTEM":"UTC","MEAN_MOTION":"15.08848407","RCS_SIZE":"LARGE","TLE_LINE1":"1 51996U 22025AS  22349.79315315  .00003193  00000-0  21857-3 0  9997","LAUNCH_DATE":"2022-03-09","ECCENTRICITY":"0.00020290","OBJECT_ID":"2022-025AS"},{"FILE":"3702726","MEAN_MOTION_DOT":"0.00001407","APOAPSIS":"541.243","DECAY_DATE":null,"REV_AT_EPOCH":"4278","EPHEMERIS_TYPE":"0","ARG_OF_PERICENTER":"33.7729","BSTAR":"0.00010649000000","OBJECT_NAME":"STARLINK-3589","EPOCH":"2022-12-15T19:18:02.337408","SEMIMAJOR_AXIS":"6917.867","ELEMENT_SET_NO":"999","REF_FRAME":"TEME","NORAD_CAT_ID":"51997","COUNTRY_CODE":"US","CENTER_NAME":"EARTH","OBJECT_TYPE":"PAYLOAD","TLE_LINE2":"2 51997  53.2171 275.8322 0002184  33.7729 326.3402 15.08844464 42782","GP_ID":"220528610","LAUNCH_DATE":"2022-03-09","TLE_LINE1":"1 51997U 22025AT  22349.80419372  .00001407  00000-0  10649-3 0  9991","ECCENTRICITY":"0.00021840","OBJECT_ID":"2022-025AT","RCS_SIZE":"LARGE","MEAN_MOTION":"15.08844464","TIME_SYSTEM":"UTC","MEAN_ANOMALY":"326.3402","CLASSIFICATION_TYPE":"U","MEAN_MOTION_DDOT":"0.0000000000000","SITE":"AFETR","PERIOD":"95.437","RA_OF_ASC_NODE":"275.8322","INCLINATION":"53.2171","PERIAPSIS":"538.221","MEAN_ELEMENT_THEORY":"SGP4"},{"TLE_LINE2":"2 51998  53.2178 275.7236 0002355  38.7531 321.3629 15.08852909 42801","GP_ID":"220529861","OBJECT_TYPE":"PAYLOAD","CENTER_NAME":"EARTH","COUNTRY_CODE":"US","NORAD_CAT_ID":"51998","REF_FRAME":"TEME","ELEMENT_SET_NO":"999","SEMIMAJOR_AXIS":"6917.841","EPOCH":"2022-12-15T19:55:08.318496","OBJECT_NAME":"STARLINK-3618","BSTAR":"0.00028373000000","EPHEMERIS_TYPE":"0","ARG_OF_PERICENTER":"38.7531","REV_AT_EPOCH":"4280","DECAY_DATE":null,"APOAPSIS":"541.335","MEAN_MOTION_DOT":"0.00004232","FILE":"3702726","PERIAPSIS":"538.077","MEAN_ELEMENT_THEORY":"SGP4","INCLINATION":"53.2178","PERIOD":"95.437","RA_OF_ASC_NODE":"275.7236","MEAN_MOTION_DDOT":"0.0000000000000","SITE":"AFETR","CLASSIFICATION_TYPE":"U","MEAN_ANOMALY":"321.3629","TIME_SYSTEM":"UTC","RCS_SIZE":"MEDIUM","MEAN_MOTION":"15.08852909","OBJECT_ID":"2022-025AU","TLE_LINE1":"1 51998U 22025AU  22349.82995739  .00004232  00000-0  28373-3 0  9992","ECCENTRICITY":"0.00023550","LAUNCH_DATE":"2022-03-09"},{"GP_ID":"220530111","TLE_LINE2":"2 51999  53.2193 275.9018 0002047  36.5319 323.5813 15.08841619 42790","OBJECT_TYPE":"PAYLOAD","COUNTRY_CODE":"US","CENTER_NAME":"EARTH","NORAD_CAT_ID":"51999","REF_FRAME":"TEME","ELEMENT_SET_NO":"999","SEMIMAJOR_AXIS":"6917.875","EPOCH":"2022-12-15T18:58:13.812096","OBJECT_NAME":"STARLINK-3667","BSTAR":"0.00006123100000","ARG_OF_PERICENTER":"36.5319","EPHEMERIS_TYPE":"0","REV_AT_EPOCH":"4279","APOAPSIS":"541.157","DECAY_DATE":null,"MEAN_MOTION_DOT":"0.00000686","FILE":"3702726","PERIAPSIS":"538.324","MEAN_ELEMENT_THEORY":"SGP4","INCLINATION":"53.2193","PERIOD":"95.437","RA_OF_ASC_NODE":"275.9018","MEAN_MOTION_DDOT":"0.0000000000000","SITE":"AFETR","CLASSIFICATION_TYPE":"U","MEAN_ANOMALY":"323.5813","TIME_SYSTEM":"UTC","RCS_SIZE":"LARGE","MEAN_MOTION":"15.08841619","OBJECT_ID":"2022-025AV","TLE_LINE1":"1 51999U 22025AV  22349.79043764  .00000686  00000-0  61231-4 0  9991","LAUNCH_DATE":"2022-03-09","ECCENTRICITY":"0.00020470"}];
